{
  "type": "FeatureCollection",
  "features": [
    {
      "type": "Feature",
      "properties": {
        "norad_id": 66808,
        "name": "STARLINK-36071",
        "group": "last-30-days",
        "lat": 35.93619066201499,
        "lon": -99.28120297516861,
        "alt_km": 366.10071118671476,
        "timestamp": "2025-12-19T16:54:42.968248+00:00",
        "meta_object_name": "STARLINK-36071",
        "meta_object_id": "2025-278T",
        "meta_epoch": "2025-12-19T06:00:02.000160",
        "meta_mean_motion": 15.67849405,
        "meta_eccentricity": 0.00019481,
        "meta_inclination": 42.999,
        "meta_ra_of_asc_node": 212.3767,
        "meta_arg_of_pericenter": 268.6483,
        "meta_mean_anomaly": 103.1569,
        "meta_ephemeris_type": 0,
        "meta_classification_type": "U",
        "meta_norad_cat_id": 66808,
        "meta_element_set_no": 999,
        "meta_rev_at_epoch": 400,
        "meta_bstar": -0.019360195,
        "meta_mean_motion_dot": -0.01941034,
        "meta_mean_motion_ddot": 0,
        "tle_line1": "1 66808U 25278T   25353.25002315 -.01941034  00000+0 -19360-1 0  9991",
        "tle_line2": "2 66808  42.9990 212.3767 0001948 268.6483 103.1569 15.67849405  4008"
      },
      "geometry": {
        "type": "Point",
        "coordinates": [
          -99.28120297516861,
          35.93619066201499
        ]
      }
    },
    {
      "type": "Feature",
      "properties": {
        "norad_id": 66809,
        "name": "STARLINK-35979",
        "group": "last-30-days",
        "lat": 38.223126552555904,
        "lon": -92.66943106317778,
        "alt_km": 365.8020941009245,
        "timestamp": "2025-12-19T16:54:42.968258+00:00",
        "meta_object_name": "STARLINK-35979",
        "meta_object_id": "2025-278U",
        "meta_epoch": "2025-12-19T06:00:02.000160",
        "meta_mean_motion": 15.67832396,
        "meta_eccentricity": 0.00020194,
        "meta_inclination": 42.9992,
        "meta_ra_of_asc_node": 212.3619,
        "meta_arg_of_pericenter": 272.1078,
        "meta_mean_anomaly": 105.4611,
        "meta_ephemeris_type": 0,
        "meta_classification_type": "U",
        "meta_norad_cat_id": 66809,
        "meta_element_set_no": 999,
        "meta_rev_at_epoch": 400,
        "meta_bstar": -0.019179642,
        "meta_mean_motion_dot": -0.01923877,
        "meta_mean_motion_ddot": 0,
        "tle_line1": "1 66809U 25278U   25353.25002315 -.01923877  00000+0 -19180-1 0  9997",
        "tle_line2": "2 66809  42.9992 212.3619 0002019 272.1078 105.4611 15.67832396  4001"
      },
      "geometry": {
        "type": "Point",
        "coordinates": [
          -92.66943106317778,
          38.223126552555904
        ]
      }
    },
    {
      "type": "Feature",
      "properties": {
        "norad_id": 66810,
        "name": "STARLINK-36046",
        "group": "last-30-days",
        "lat": 36.739383708920755,
        "lon": -97.12144747327534,
        "alt_km": 365.9747823026664,
        "timestamp": "2025-12-19T16:54:42.968271+00:00",
        "meta_object_name": "STARLINK-36046",
        "meta_object_id": "2025-278V",
        "meta_epoch": "2025-12-19T06:00:02.000160",
        "meta_mean_motion": 15.67846206,
        "meta_eccentricity": 0.00019274,
        "meta_inclination": 42.9993,
        "meta_ra_of_asc_node": 212.3721,
        "meta_arg_of_pericenter": 269.2274,
        "meta_mean_anomaly": 104.4971,
        "meta_ephemeris_type": 0,
        "meta_classification_type": "U",
        "meta_norad_cat_id": 66810,
        "meta_element_set_no": 999,
        "meta_rev_at_epoch": 377,
        "meta_bstar": -0.019315607,
        "meta_mean_motion_dot": -0.01936839,
        "meta_mean_motion_ddot": 0,
        "tle_line1": "1 66810U 25278V   25353.25002315 -.01936839  00000+0 -19316-1 0  9992",
        "tle_line2": "2 66810  42.9993 212.3721 0001927 269.2274 104.4971 15.67846206  3776"
      },
      "geometry": {
        "type": "Point",
        "coordinates": [
          -97.12144747327534,
          36.739383708920755
        ]
      }
    },
    {
      "type": "Feature",
      "properties": {
        "norad_id": 66811,
        "name": "STARLINK-36045",
        "group": "last-30-days",
        "lat": 37.498921977529214,
        "lon": -94.92677004279548,
        "alt_km": 365.72159807438584,
        "timestamp": "2025-12-19T16:54:42.968281+00:00",
        "meta_object_name": "STARLINK-36045",
        "meta_object_id": "2025-278W",
        "meta_epoch": "2025-12-19T06:00:02.000160",
        "meta_mean_motion": 15.67862053,
        "meta_eccentricity": 0.00015852,
        "meta_inclination": 42.9989,
        "meta_ra_of_asc_node": 212.3668,
        "meta_arg_of_pericenter": 269.3364,
        "meta_mean_anomaly": 106.3015,
        "meta_ephemeris_type": 0,
        "meta_classification_type": "U",
        "meta_norad_cat_id": 66811,
        "meta_element_set_no": 999,
        "meta_rev_at_epoch": 400,
        "meta_bstar": -0.01965026,
        "meta_mean_motion_dot": -0.01967299,
        "meta_mean_motion_ddot": 0,
        "tle_line1": "1 66811U 25278W   25353.25002315 -.01967299  00000+0 -19650-1 0  9998",
        "tle_line2": "2 66811  42.9989 212.3668 0001585 269.3364 106.3015 15.67862053  4008"
      },
      "geometry": {
        "type": "Point",
        "coordinates": [
          -94.92677004279548,
          37.498921977529214
        ]
      }
    },
    {
      "type": "Feature",
      "properties": {
        "norad_id": 66812,
        "name": "STARLINK-36054",
        "group": "last-30-days",
        "lat": 38.899546343233006,
        "lon": -90.37956456794102,
        "alt_km": 365.65563378828756,
        "timestamp": "2025-12-19T16:54:42.968293+00:00",
        "meta_object_name": "STARLINK-36054",
        "meta_object_id": "2025-278X",
        "meta_epoch": "2025-12-19T06:00:02.000160",
        "meta_mean_motion": 15.6785106,
        "meta_eccentricity": 0.00018607,
        "meta_inclination": 42.9993,
        "meta_ra_of_asc_node": 212.3573,
        "meta_arg_of_pericenter": 270.5312,
        "meta_mean_anomaly": 108.942,
        "meta_ephemeris_type": 0,
        "meta_classification_type": "U",
        "meta_norad_cat_id": 66812,
        "meta_element_set_no": 999,
        "meta_rev_at_epoch": 400,
        "meta_bstar": -0.019386302,
        "meta_mean_motion_dot": -0.01943394,
        "meta_mean_motion_ddot": 0,
        "tle_line1": "1 66812U 25278X   25353.25002315 -.01943394  00000+0 -19386-1 0  9995",
        "tle_line2": "2 66812  42.9993 212.3573 0001860 270.5312 108.9420 15.67851060  4006"
      },
      "geometry": {
        "type": "Point",
        "coordinates": [
          -90.37956456794102,
          38.899546343233006
        ]
      }
    },
    {
      "type": "Feature",
      "properties": {
        "norad_id": 66813,
        "name": "STARLINK-36042",
        "group": "last-30-days",
        "lat": 39.53091646249148,
        "lon": -88.04329492918741,
        "alt_km": 365.56533891048457,
        "timestamp": "2025-12-19T16:54:42.968303+00:00",
        "meta_object_name": "STARLINK-36042",
        "meta_object_id": "2025-278Y",
        "meta_epoch": "2025-12-19T06:00:02.000160",
        "meta_mean_motion": 15.67842415,
        "meta_eccentricity": 0.00018408,
        "meta_inclination": 42.9992,
        "meta_ra_of_asc_node": 212.353,
        "meta_arg_of_pericenter": 268.4093,
        "meta_mean_anomaly": 112.9829,
        "meta_ephemeris_type": 0,
        "meta_classification_type": "U",
        "meta_norad_cat_id": 66813,
        "meta_element_set_no": 999,
        "meta_rev_at_epoch": 400,
        "meta_bstar": -0.019210496,
        "meta_mean_motion_dot": -0.01927181,
        "meta_mean_motion_ddot": 0,
        "tle_line1": "1 66813U 25278Y   25353.25002315 -.01927181  00000+0 -19210-1 0  9998",
        "tle_line2": "2 66813  42.9992 212.3530 0001840 268.4093 112.9829 15.67842415  4001"
      },
      "geometry": {
        "type": "Point",
        "coordinates": [
          -88.04329492918741,
          39.53091646249148
        ]
      }
    },
    {
      "type": "Feature",
      "properties": {
        "norad_id": 66814,
        "name": "STARLINK-35984",
        "group": "last-30-days",
        "lat": 42.25351157992237,
        "lon": -73.25825337376463,
        "alt_km": 365.23034728855146,
        "timestamp": "2025-12-19T16:54:42.968313+00:00",
        "meta_object_name": "STARLINK-35984",
        "meta_object_id": "2025-278Z",
        "meta_epoch": "2025-12-19T06:00:02.000160",
        "meta_mean_motion": 15.67856097,
        "meta_eccentricity": 0.00017951,
        "meta_inclination": 42.9988,
        "meta_ra_of_asc_node": 212.3218,
        "meta_arg_of_pericenter": 270.5524,
        "meta_mean_anomaly": 122.3389,
        "meta_ephemeris_type": 0,
        "meta_classification_type": "U",
        "meta_norad_cat_id": 66814,
        "meta_element_set_no": 999,
        "meta_rev_at_epoch": 409,
        "meta_bstar": -0.019489026,
        "meta_mean_motion_dot": -0.01952793,
        "meta_mean_motion_ddot": 0,
        "tle_line1": "1 66814U 25278Z   25353.25002315 -.01952793  00000+0 -19489-1 0  9994",
        "tle_line2": "2 66814  42.9988 212.3218 0001795 270.5524 122.3389 15.67856097  4098"
      },
      "geometry": {
        "type": "Point",
        "coordinates": [
          -73.25825337376463,
          42.25351157992237
        ]
      }
    }
  ]
}